[
  {
    "Hospital": "Doddballapura UPHC",
    "Address": "Uphc Near Old Bus Stand Area Doddaballapura Taluk Bangaluru Rural",
    "District": "Bangaluru Rural",
    "Pincode": 561203,
    "Beds_total": 430,
    "Beds_occupied": 146,
    "Beds_available": 284
  },
  {
    "Hospital": "KAMMASANDRA PHC",
    "Address": "KAMMASANDRA",
    "District": "Bangaluru Rural",
    "Pincode": 561204,
    "Beds_total": 30,
    "Beds_occupied": 4,
    "Beds_available": 26
  },
  {
    "Hospital": "Sasalu PHC",
    "Address": "Sasalu PHCDoddaballapura TalukBangaluru Rural",
    "District": "Bangaluru Rural",
    "Pincode": 561204,
    "Beds_total": 315,
    "Beds_occupied": 111,
    "Beds_available": 204
  },
  {
    "Hospital": "Godlumuddenahalli PHC",
    "Address": "Godlumuddenahalli PHCDevanahalli Taluk Bangaluru Rural",
    "District": "Bangaluru Rural",
    "Pincode": 562110,
    "Beds_total": 475,
    "Beds_occupied": 168,
    "Beds_available": 307
  },
  {
    "Hospital": "Kanasawadi PHC",
    "Address": "Kanasawadi Doddaballapura TalukBangaluru Rural",
    "District": "Bangaluru Rural",
    "Pincode": 561203,
    "Beds_total": 210,
    "Beds_occupied": 122,
    "Beds_available": 88
  },
  {
    "Hospital": "Tubagere PHC",
    "Address": "Tubagere PHC Doddaballapura TalukBangaluru Rural",
    "District": "Bangaluru Rural",
    "Pincode": 561203,
    "Beds_total": 315,
    "Beds_occupied": 170,
    "Beds_available": 145
  },
  {
    "Hospital": "Doddaballapura TH",
    "Address": "Govt Ayurvedic Hospital Building Beside LIC Office Doddaballapura Taluk Bangaluru Rural",
    "District": "Bangaluru Rural",
    "Pincode": 561203,
    "Beds_total": 350,
    "Beds_occupied": 139,
    "Beds_available": 211
  },
  {
    "Hospital": "Doddaballapura TH COVAXIN Site",
    "Address": "Near TB Circal Doddaballapura",
    "District": "Bangaluru Rural",
    "Pincode": 561203,
    "Beds_total": 245,
    "Beds_occupied": 18,
    "Beds_available": 227
  },
  {
    "Hospital": "Shri Subramanya Ghati PHC",
    "Address": "Shri Subramanya Ghati PHC Doddaballapura TalukBangaluru Rural",
    "District": "Bangaluru Rural",
    "Pincode": 561203,
    "Beds_total": 280,
    "Beds_occupied": 14,
    "Beds_available": 266
  },
  {
    "Hospital": "Kodigehalli",
    "Address": "Kodigehalli Doddaballapura TalukBangaluru Rural",
    "District": "Bangaluru Rural",
    "Pincode": 561203,
    "Beds_total": 60,
    "Beds_occupied": 16,
    "Beds_available": 44
  },
  {
    "Hospital": "Maralenahalii PHC",
    "Address": "Maralenahalii PHC Doddaballapura TalukBangaluru Rural",
    "District": "Bangaluru Rural",
    "Pincode": 561203,
    "Beds_total": 60,
    "Beds_occupied": 50,
    "Beds_available": 10
  },
  {
    "Hospital": "KADANUR PHC",
    "Address": "KADANUR",
    "District": "Bangaluru Rural",
    "Pincode": 561204,
    "Beds_total": 310,
    "Beds_occupied": 211,
    "Beds_available": 99
  },
  {
    "Hospital": "Gundumgere Hosahalli PHC",
    "Address": "Gundumgere Hosahalli PHCDoddaballapura TalukBangaluru Rural",
    "District": "Bangaluru Rural",
    "Pincode": 561204,
    "Beds_total": 200,
    "Beds_occupied": 115,
    "Beds_available": 85
  },
  {
    "Hospital": "Gundappanayakana Halli SC",
    "Address": "Gundappanayakana Halli",
    "District": "Bangaluru Rural",
    "Pincode": 561203,
    "Beds_total": 10,
    "Beds_occupied": 1,
    "Beds_available": 9
  },
  {
    "Hospital": "Vishwanathapura PHC",
    "Address": "Vishwanathapura PHCDevanahalli Taluk Bangaluru Rural",
    "District": "Bangaluru Rural",
    "Pincode": 562110,
    "Beds_total": 5,
    "Beds_occupied": 1,
    "Beds_available": 4
  },
  {
    "Hospital": "Arudi PHC",
    "Address": "Arudi Sasalu Hobli Doddaballapura TalukBangaluru Rural",
    "District": "Bangaluru Rural",
    "Pincode": 561203,
    "Beds_total": 205,
    "Beds_occupied": 43,
    "Beds_available": 162
  },
  {
    "Hospital": "Melekote PHC",
    "Address": "Melekote PHC Doddaballapura TalukBangaluru Rural",
    "District": "Bangaluru Rural",
    "Pincode": 561203,
    "Beds_total": 450,
    "Beds_occupied": 106,
    "Beds_available": 344
  },
  {
    "Hospital": "HALENAHALLI",
    "Address": "HALENAHALLI",
    "District": "Bangaluru Rural",
    "Pincode": 561204,
    "Beds_total": 475,
    "Beds_occupied": 268,
    "Beds_available": 207
  },
  {
    "Hospital": "Hulikunte PHC",
    "Address": "Hulikunte PHC Near Bus Stop",
    "District": "Bangaluru Rural",
    "Pincode": 561203,
    "Beds_total": 340,
    "Beds_occupied": 287,
    "Beds_available": 53
  },
  {
    "Hospital": "Doddatumakuru",
    "Address": "DoddatumakuruDoddaballapura TalukBangaluru Rural",
    "District": "Bangaluru Rural",
    "Pincode": 562163,
    "Beds_total": 285,
    "Beds_occupied": 103,
    "Beds_available": 182
  },
  {
    "Hospital": "Doddaballapura UPHC Covaxin",
    "Address": "Uphc Doddaballapura",
    "District": "Bangaluru Rural",
    "Pincode": 561203,
    "Beds_total": 215,
    "Beds_occupied": 188,
    "Beds_available": 27
  },
  {
    "Hospital": "Konaghatta PHC",
    "Address": "Nandi Hills Cross Doddaballapura TalukBangaluru Rural",
    "District": "Bangaluru Rural",
    "Pincode": 562163,
    "Beds_total": 350,
    "Beds_occupied": 305,
    "Beds_available": 45
  },
  {
    "Hospital": "Konenahalli PHC",
    "Address": "Konenahalli Phc Doddaballapura TalukBangaluru Rural",
    "District": "Bangaluru Rural",
    "Pincode": 561204,
    "Beds_total": 335,
    "Beds_occupied": 271,
    "Beds_available": 64
  },
  {
    "Hospital": "Sulikere PHC",
    "Address": "Near Sulikere Government School",
    "District": "Bangaluru Urban",
    "Pincode": 560060,
    "Beds_total": 165,
    "Beds_occupied": 147,
    "Beds_available": 18
  },
  {
    "Hospital": "Karpur Sub Centre",
    "Address": "Karpur Sub Centre Anekal Taluk",
    "District": "Bangaluru Urban",
    "Pincode": 562106,
    "Beds_total": 245,
    "Beds_occupied": 24,
    "Beds_available": 221
  },
  {
    "Hospital": "Air Force Station Jalahalli",
    "Address": "AIR FORCE STATION JALAHALLI WEST SUBRATO MUKHERJEE ROAD Bangaluru",
    "District": "Bangaluru Urban",
    "Pincode": 560015,
    "Beds_total": 195,
    "Beds_occupied": 173,
    "Beds_available": 22
  },
  {
    "Hospital": "Gopalpura PHC",
    "Address": "Railway Gollahalli Post",
    "District": "Bangaluru Urban",
    "Pincode": 562123,
    "Beds_total": 350,
    "Beds_occupied": 217,
    "Beds_available": 133
  },
  {
    "Hospital": "Guddadahalli Sub Centre",
    "Address": "Guddadahali Anganawadi Center",
    "District": "Bangaluru Urban",
    "Pincode": 560088,
    "Beds_total": 390,
    "Beds_occupied": 274,
    "Beds_available": 116
  },
  {
    "Hospital": "Bolare PHC",
    "Address": "Kanakapura Main Road",
    "District": "Bangaluru Urban",
    "Pincode": 560116,
    "Beds_total": 130,
    "Beds_occupied": 120,
    "Beds_available": 10
  },
  {
    "Hospital": "Tavarekere PHC",
    "Address": "Magadi Main Road",
    "District": "Bangaluru Urban",
    "Pincode": 562130,
    "Beds_total": 230,
    "Beds_occupied": 205,
    "Beds_available": 25
  },
  {
    "Hospital": "Indalwadi PHC",
    "Address": "Indalvadi Govt Hospital",
    "District": "Bangaluru Urban",
    "Pincode": 562106,
    "Beds_total": 105,
    "Beds_occupied": 68,
    "Beds_available": 37
  },
  {
    "Hospital": "Udipalya",
    "Address": "Udipalya AWC",
    "District": "Bangaluru Urban",
    "Pincode": 560116,
    "Beds_total": 270,
    "Beds_occupied": 105,
    "Beds_available": 165
  },
  {
    "Hospital": "AIR FORCE STATION YELAHANKA",
    "Address": "AIR FORCE STATION YELAHANKA",
    "District": "Bangaluru Urban",
    "Pincode": 560063,
    "Beds_total": 30,
    "Beds_occupied": 12,
    "Beds_available": 18
  },
  {
    "Hospital": "Kauvery Hospital E City",
    "Address": "92.b Konappana Hagrara Electroniv City",
    "District": "Bangaluru Urban",
    "Pincode": 560100,
    "Beds_total": 270,
    "Beds_occupied": 47,
    "Beds_available": 223
  },
  {
    "Hospital": "Hebbagodi S C",
    "Address": "Gollahalli Main Rd Gollahalli Hebbagodi",
    "District": "Bangaluru Urban",
    "Pincode": 560099,
    "Beds_total": 390,
    "Beds_occupied": 304,
    "Beds_available": 86
  },
  {
    "Hospital": "Halanayakanahalli PHC",
    "Address": "Sarjapura Main Road",
    "District": "Bangaluru Urban",
    "Pincode": 560035,
    "Beds_total": 305,
    "Beds_occupied": 99,
    "Beds_available": 206
  },
  {
    "Hospital": "Hebbagodi PHC",
    "Address": "Nathal Bihari Vajapayee Circle",
    "District": "Bangaluru Urban",
    "Pincode": 560099,
    "Beds_total": 355,
    "Beds_occupied": 49,
    "Beds_available": 306
  },
  {
    "Hospital": "INST OF AEROSPACE MEDICINE",
    "Address": "STATION MEDICARE CENTRE GAGAN VIHAR CAMP WIND TUNNEL ROAD KR GARDEN",
    "District": "Bangaluru Urban",
    "Pincode": 560017,
    "Beds_total": 240,
    "Beds_occupied": 55,
    "Beds_available": 185
  },
  {
    "Hospital": "IAM COVAXIN",
    "Address": "STATION MEDICARE CENTRE GAGAN VIHAR CAMP WIND TUNNEL ROAD KR GARDEN",
    "District": "Bangaluru Urban",
    "Pincode": 560017,
    "Beds_total": 405,
    "Beds_occupied": 209,
    "Beds_available": 196
  },
  {
    "Hospital": "Marasuru PHC",
    "Address": "Marasuru Main Road",
    "District": "Bangaluru Urban",
    "Pincode": 562106,
    "Beds_total": 210,
    "Beds_occupied": 159,
    "Beds_available": 51
  },
  {
    "Hospital": "Doddabanahalli Sub Centre",
    "Address": "Konadaspura Governament School",
    "District": "Bangaluru Urban",
    "Pincode": 560049,
    "Beds_total": 425,
    "Beds_occupied": 237,
    "Beds_available": 188
  },
  {
    "Hospital": "Kumbalgodu PHC",
    "Address": "Mysore Main Road",
    "District": "Bangaluru Urban",
    "Pincode": 560074,
    "Beds_total": 285,
    "Beds_occupied": 53,
    "Beds_available": 232
  },
  {
    "Hospital": "Sarjapura PHC",
    "Address": "Near Sarjapura Police Station",
    "District": "Bangaluru Urban",
    "Pincode": 562125,
    "Beds_total": 415,
    "Beds_occupied": 237,
    "Beds_available": 178
  },
  {
    "Hospital": "Balluru PHC",
    "Address": "Dasanapura Road",
    "District": "Bangaluru Urban",
    "Pincode": 562107,
    "Beds_total": 460,
    "Beds_occupied": 335,
    "Beds_available": 125
  },
  {
    "Hospital": "Kadusonnappanahalli PHC",
    "Address": "Bagaluru Main Road",
    "District": "Bangaluru Urban",
    "Pincode": 562149,
    "Beds_total": 15,
    "Beds_occupied": 0,
    "Beds_available": 15
  },
  {
    "Hospital": "Machohalli PHC Valmiki Bhavana",
    "Address": "Valmiki Samudaya Bhavana Machohalli Colony",
    "District": "Bangaluru Urban",
    "Pincode": 560091,
    "Beds_total": 280,
    "Beds_occupied": 10,
    "Beds_available": 270
  },
  {
    "Hospital": "AIR FORCESTN YELAHANKA COVAXIN",
    "Address": "AIR FORCE STATION YELAHANKA",
    "District": "Bangaluru Urban",
    "Pincode": 560063,
    "Beds_total": 55,
    "Beds_occupied": 30,
    "Beds_available": 25
  },
  {
    "Hospital": "Headquarter Training COVAXIN",
    "Address": "HEADQUARTER TRAINING COMMAND JC BAGAR POST HEBBAL Bangaluru- 560006",
    "District": "Bangaluru Urban",
    "Pincode": 560007,
    "Beds_total": 75,
    "Beds_occupied": 39,
    "Beds_available": 36
  },
  {
    "Hospital": "MI ROOM AFS COVAXIN",
    "Address": "MI Room Air Force Station",
    "District": "Bangaluru Urban",
    "Pincode": 560090,
    "Beds_total": 165,
    "Beds_occupied": 153,
    "Beds_available": 12
  },
  {
    "Hospital": "Air Frce Stn Jalahalli COVAXIN",
    "Address": "AIR FORCE STATION JALAHALLI WEST SUBRATO MUKHERJEE ROAD Bangaluru.",
    "District": "Bangaluru Urban",
    "Pincode": 560015,
    "Beds_total": 255,
    "Beds_occupied": 211,
    "Beds_available": 44
  },
  {
    "Hospital": "Sonnenahalli PHC",
    "Address": "Sonnenahalli Bytha Post Hesaraghatta Hobli Bengaluru North Bengaluru Urban District",
    "District": "Bangaluru Urban",
    "Pincode": 560089,
    "Beds_total": 455,
    "Beds_occupied": 127,
    "Beds_available": 328
  },
  {
    "Hospital": "Bettahalsuru PHC",
    "Address": "Near Govt School Bettahalsuru Post",
    "District": "Bangaluru Urban",
    "Pincode": 562157,
    "Beds_total": 240,
    "Beds_occupied": 96,
    "Beds_available": 144
  },
  {
    "Hospital": "Haragadde PHC",
    "Address": "Bannerghatta Main Road",
    "District": "Bangaluru Urban",
    "Pincode": 560105,
    "Beds_total": 330,
    "Beds_occupied": 255,
    "Beds_available": 75
  },
  {
    "Hospital": "BHADRIPURA Sub Centre",
    "Address": "Bhadripura Sc",
    "District": "Bangaluru Urban",
    "Pincode": 562106,
    "Beds_total": 445,
    "Beds_occupied": 438,
    "Beds_available": 7
  },
  {
    "Hospital": "ATTIBELE SC",
    "Address": "ATTIBELE SC",
    "District": "Bangaluru Urban",
    "Pincode": 562107,
    "Beds_total": 350,
    "Beds_occupied": 199,
    "Beds_available": 151
  },
  {
    "Hospital": "Avalahalli Covaxin",
    "Address": "Old Madras Road",
    "District": "Bangaluru Urban",
    "Pincode": 560049,
    "Beds_total": 445,
    "Beds_occupied": 22,
    "Beds_available": 423
  },
  {
    "Hospital": "Chandrappa Circle CHC",
    "Address": "Tavarekere Main Road",
    "District": "Bangaluru Urban",
    "Pincode": 562130,
    "Beds_total": 5,
    "Beds_occupied": 4,
    "Beds_available": 1
  },
  {
    "Hospital": "Guddahatti PHC",
    "Address": "Near Budda Temple",
    "District": "Bangaluru Urban",
    "Pincode": 562107,
    "Beds_total": 420,
    "Beds_occupied": 85,
    "Beds_available": 335
  },
  {
    "Hospital": "HEADQUARTER TRAINING COMMAND",
    "Address": "HEADQUARTER TRAINING COMMAND JC BAGAR POST HEBBAL Bangaluru",
    "District": "Bangaluru Urban",
    "Pincode": 560032,
    "Beds_total": 430,
    "Beds_occupied": 175,
    "Beds_available": 255
  },
  {
    "Hospital": "COMMANDHOSPTL AIRFORCE COVAXIN",
    "Address": "COMMAND HOSPITAL AIR FORCE CAMBRIDGE ROADCAMBRIDGE LAYOUT JOGUPALYA Bangaluru",
    "District": "Bangaluru Urban",
    "Pincode": 560007,
    "Beds_total": 245,
    "Beds_occupied": 52,
    "Beds_available": 193
  },
  {
    "Hospital": "YAMARE SC DOMMASANDRA",
    "Address": "YAMARE SC DOMMASANDRA GRAM PYANCHATH",
    "District": "Bangaluru Urban",
    "Pincode": 562125,
    "Beds_total": 195,
    "Beds_occupied": 6,
    "Beds_available": 189
  },
  {
    "Hospital": "Kaggalipura CHC",
    "Address": "Kanakapura Main Road",
    "District": "Bangaluru Urban",
    "Pincode": 560116,
    "Beds_total": 460,
    "Beds_occupied": 112,
    "Beds_available": 348
  },
  {
    "Hospital": "Madavara Sub Centre",
    "Address": "Madavara Sub Centre",
    "District": "Bangaluru Urban",
    "Pincode": 562162,
    "Beds_total": 465,
    "Beds_occupied": 327,
    "Beds_available": 138
  },
  {
    "Hospital": "ANEKAL TH COVAXIN",
    "Address": "Weaver Colony Anekal",
    "District": "Bangaluru Urban",
    "Pincode": 560106,
    "Beds_total": 355,
    "Beds_occupied": 237,
    "Beds_available": 118
  },
  {
    "Hospital": "Sparsh Hospital Basement",
    "Address": "29 P2 The Health City Hosur Rd Bommasandra Industrial Area Bengaluru",
    "District": "Bangaluru Urban",
    "Pincode": 560099,
    "Beds_total": 460,
    "Beds_occupied": 359,
    "Beds_available": 101
  },
  {
    "Hospital": "BIDRAGUPPE SUB CENTER",
    "Address": "Bmtc Bus Stand Near Govt School",
    "District": "Bangaluru Urban",
    "Pincode": 562107,
    "Beds_total": 0,
    "Beds_occupied": 0,
    "Beds_available": 0
  },
  {
    "Hospital": "Huralichikkanahalli Sub Centre",
    "Address": "Subcentre Huralichikkanahalli Place Huralichikkanahalli",
    "District": "Bangaluru Urban",
    "Pincode": 560090,
    "Beds_total": 5,
    "Beds_occupied": 1,
    "Beds_available": 4
  },
  {
    "Hospital": "Rajanukunte PHC",
    "Address": "Doddaballapur Main Road",
    "District": "Bangaluru Urban",
    "Pincode": 560064,
    "Beds_total": 390,
    "Beds_occupied": 326,
    "Beds_available": 64
  },
  {
    "Hospital": "Bidarahalli PHCSamudaya Bhavan",
    "Address": "Samudaya Bhavan Bidarahalli Circle Behind Chennakeshava High School",
    "District": "Bangaluru Urban",
    "Pincode": 560049,
    "Beds_total": 10,
    "Beds_occupied": 7,
    "Beds_available": 3
  },
  {
    "Hospital": "ALURU Sub Centre",
    "Address": "Aluru Sub Centre Makali Main Road",
    "District": "Bangaluru Urban",
    "Pincode": 562162,
    "Beds_total": 400,
    "Beds_occupied": 176,
    "Beds_available": 224
  },
  {
    "Hospital": "Hesaraghatta Sub Centre",
    "Address": "Hesaraghatta",
    "District": "Bangaluru Urban",
    "Pincode": 560088,
    "Beds_total": 15,
    "Beds_occupied": 2,
    "Beds_available": 13
  },
  {
    "Hospital": "Makali PHC 1",
    "Address": "Alur Main Road",
    "District": "Bangaluru Urban",
    "Pincode": 562162,
    "Beds_total": 205,
    "Beds_occupied": 17,
    "Beds_available": 188
  },
  {
    "Hospital": "KODATHI PHC",
    "Address": "Ambedkarnagar",
    "District": "Bangaluru Urban",
    "Pincode": 560035,
    "Beds_total": 80,
    "Beds_occupied": 33,
    "Beds_available": 47
  },
  {
    "Hospital": "Narayana Hrudayalaya Covaxin",
    "Address": "258 A Hosur Road Anekal Taluk Bommasandra Industrial Area",
    "District": "Bangaluru Urban",
    "Pincode": 560099,
    "Beds_total": 425,
    "Beds_occupied": 342,
    "Beds_available": 83
  },
  {
    "Hospital": "RAMOHALLI SUB CENTRE",
    "Address": "RAMOHALLI SUB CENTRE GOVT SCHOOL",
    "District": "Bangaluru Urban",
    "Pincode": 560060,
    "Beds_total": 205,
    "Beds_occupied": 32,
    "Beds_available": 173
  },
  {
    "Hospital": "Marenahalli Sub Center",
    "Address": "Marenahalli Sub Center",
    "District": "Bangaluru Urban",
    "Pincode": 562149,
    "Beds_total": 60,
    "Beds_occupied": 49,
    "Beds_available": 11
  },
  {
    "Hospital": "NERALURU SUB CENTRE",
    "Address": "NERALURU SUB CENTRE",
    "District": "Bangaluru Urban",
    "Pincode": 562107,
    "Beds_total": 40,
    "Beds_occupied": 14,
    "Beds_available": 26
  },
  {
    "Hospital": "Konappanahagrara Sc Singsandra",
    "Address": "Koanappana Hagrahara Panchayath",
    "District": "Bangaluru Urban",
    "Pincode": 560100,
    "Beds_total": 445,
    "Beds_occupied": 441,
    "Beds_available": 4
  },
  {
    "Hospital": "Tavarekere Sub Center",
    "Address": "Amberdkar Samudayabhavan Tavarekere",
    "District": "Bangaluru Urban",
    "Pincode": 562130,
    "Beds_total": 115,
    "Beds_occupied": 3,
    "Beds_available": 112
  },
  {
    "Hospital": "COMPOSITE HOSPITAL C R P F",
    "Address": "COMPOSITE HOSPITAL C R P F YELAHANKA",
    "District": "Bangaluru Urban",
    "Pincode": 560064,
    "Beds_total": 430,
    "Beds_occupied": 375,
    "Beds_available": 55
  },
  {
    "Hospital": "KADABAGERE SUB CENTRE",
    "Address": "GOVT SCHOOL CHIKKAGOLLARAHATTI",
    "District": "Bangaluru Urban",
    "Pincode": 560091,
    "Beds_total": 130,
    "Beds_occupied": 12,
    "Beds_available": 118
  },
  {
    "Hospital": "Chikkajala PHC",
    "Address": "Airport Main Road",
    "District": "Bangaluru Urban",
    "Pincode": 562157,
    "Beds_total": 170,
    "Beds_occupied": 105,
    "Beds_available": 65
  },
  {
    "Hospital": "Sondekoppa PHC",
    "Address": "Tavarekere Main Road",
    "District": "Bangaluru Urban",
    "Pincode": 562130,
    "Beds_total": 130,
    "Beds_occupied": 39,
    "Beds_available": 91
  },
  {
    "Hospital": "Jigani PHC",
    "Address": "APC Circle Bannerghatta Road",
    "District": "Bangaluru Urban",
    "Pincode": 560105,
    "Beds_total": 25,
    "Beds_occupied": 6,
    "Beds_available": 19
  },
  {
    "Hospital": "AVALAHALLI Sub Centre",
    "Address": "Kithaganoor",
    "District": "Bangaluru Urban",
    "Pincode": 560036,
    "Beds_total": 470,
    "Beds_occupied": 254,
    "Beds_available": 216
  },
  {
    "Hospital": "Hesaraghatta PHC",
    "Address": "Near IIHR",
    "District": "Bangaluru Urban",
    "Pincode": 560088,
    "Beds_total": 15,
    "Beds_occupied": 0,
    "Beds_available": 15
  },
  {
    "Hospital": "Chandapura PHC",
    "Address": "Hosur Main Road",
    "District": "Bangaluru Urban",
    "Pincode": 560099,
    "Beds_total": 265,
    "Beds_occupied": 98,
    "Beds_available": 167
  },
  {
    "Hospital": "Mahanthalingapura PHC",
    "Address": "Harohalli Main Road",
    "District": "Bangaluru Urban",
    "Pincode": 560083,
    "Beds_total": 470,
    "Beds_occupied": 4,
    "Beds_available": 466
  },
  {
    "Hospital": "APOLLO Clinic Electronic City",
    "Address": "Neeladri Nagar Electronics City Phase 1 Bengaluru Karnataka",
    "District": "Bangaluru Urban",
    "Pincode": 560100,
    "Beds_total": 55,
    "Beds_occupied": 36,
    "Beds_available": 19
  },
  {
    "Hospital": "H Gollahalli SUB CENTRE",
    "Address": "H Gollahalli Sub Centre",
    "District": "Bangaluru Urban",
    "Pincode": 560074,
    "Beds_total": 110,
    "Beds_occupied": 93,
    "Beds_available": 17
  },
  {
    "Hospital": "RAVUGODLU",
    "Address": "BOLARE",
    "District": "Bangaluru Urban",
    "Pincode": 560082,
    "Beds_total": 20,
    "Beds_occupied": 10,
    "Beds_available": 10
  },
  {
    "Hospital": "KANNAMANGALA Sub Centre",
    "Address": "KANNAMANGALA Sub Centre",
    "District": "Bangaluru Urban",
    "Pincode": 560067,
    "Beds_total": 330,
    "Beds_occupied": 225,
    "Beds_available": 105
  },
  {
    "Hospital": "General Hospital K R Puram",
    "Address": "Hosakote Main Road",
    "District": "Bangaluru Urban",
    "Pincode": 560036,
    "Beds_total": 170,
    "Beds_occupied": 125,
    "Beds_available": 45
  },
  {
    "Hospital": "Yelahanka TH.",
    "Address": "Yelahanka Old Town Behind Veeranjaneya Temple",
    "District": "Bangaluru Urban",
    "Pincode": 562157,
    "Beds_total": 305,
    "Beds_occupied": 188,
    "Beds_available": 117
  },
  {
    "Hospital": "Attibele PHC",
    "Address": "Sadara Beedi A Anganwadi Hosuru Main Road Near Attibele Bus Stop",
    "District": "Bangaluru Urban",
    "Pincode": 562107,
    "Beds_total": 205,
    "Beds_occupied": 117,
    "Beds_available": 88
  },
  {
    "Hospital": "Kallubalu Sub Centre",
    "Address": "Grama Panchayath Kallubalu Mahnthlingapura",
    "District": "Bangaluru Urban",
    "Pincode": 560105,
    "Beds_total": 135,
    "Beds_occupied": 32,
    "Beds_available": 103
  },
  {
    "Hospital": "Kannuru PHC",
    "Address": "Yelahanka Main Road",
    "District": "Bangaluru Urban",
    "Pincode": 562149,
    "Beds_total": 65,
    "Beds_occupied": 23,
    "Beds_available": 42
  },
  {
    "Hospital": "Doddathogur SC Singsandra",
    "Address": "Doddathogur Panchaya",
    "District": "Bangaluru Urban",
    "Pincode": 560100,
    "Beds_total": 155,
    "Beds_occupied": 104,
    "Beds_available": 51
  },
  {
    "Hospital": "Central Prison Hospital",
    "Address": "Central Prison Hospital",
    "District": "Bangaluru Urban",
    "Pincode": 560099,
    "Beds_total": 95,
    "Beds_occupied": 51,
    "Beds_available": 44
  },
  {
    "Hospital": "Narayana Hrudayalaya Pvt Ltd",
    "Address": "258 A Hosur Road Anekal Taluk Bommasandra Industrial Area",
    "District": "Bangaluru Urban",
    "Pincode": 560099,
    "Beds_total": 110,
    "Beds_occupied": 32,
    "Beds_available": 78
  },
  {
    "Hospital": "NIMHANS Hospitals",
    "Address": "Lakkasandra Hombegowda Nagar",
    "District": "Bangaluru Urban",
    "Pincode": 560029,
    "Beds_total": 310,
    "Beds_occupied": 289,
    "Beds_available": 21
  },
  {
    "Hospital": "Kittanahalli Sub Centre",
    "Address": "Kittanahalli Opp. Panchayat Office",
    "District": "Bangaluru Urban",
    "Pincode": 560089,
    "Beds_total": 55,
    "Beds_occupied": 15,
    "Beds_available": 40
  },
  {
    "Hospital": "MANDURU SUB CENTRE",
    "Address": "MANDURU SUB CENTRE",
    "District": "Bangaluru Urban",
    "Pincode": 560049,
    "Beds_total": 40,
    "Beds_occupied": 35,
    "Beds_available": 5
  },
  {
    "Hospital": "Manduru PHC",
    "Address": "Opp Manduru Government School",
    "District": "Bangaluru Urban",
    "Pincode": 560049,
    "Beds_total": 370,
    "Beds_occupied": 180,
    "Beds_available": 190
  },
  {
    "Hospital": "SULIKERE Sub Centre",
    "Address": "Sulikere Sub Centre",
    "District": "Bangaluru Urban",
    "Pincode": 560060,
    "Beds_total": 70,
    "Beds_occupied": 28,
    "Beds_available": 42
  },
  {
    "Hospital": "Yalacheguppe SUB CENTER",
    "Address": "SAMUDAYA BHAVANA TAVAREKERE",
    "District": "Bangaluru Urban",
    "Pincode": 562130,
    "Beds_total": 285,
    "Beds_occupied": 51,
    "Beds_available": 234
  },
  {
    "Hospital": "Kaikondrahalli Sc H N HALLIPHC",
    "Address": "Halanayakanahalli",
    "District": "Bangaluru Urban",
    "Pincode": 560035,
    "Beds_total": 380,
    "Beds_occupied": 296,
    "Beds_available": 84
  },
  {
    "Hospital": "Handenahalli Sub Centre",
    "Address": "Handenahalli",
    "District": "Bangaluru Urban",
    "Pincode": 562125,
    "Beds_total": 145,
    "Beds_occupied": 39,
    "Beds_available": 106
  },
  {
    "Hospital": "Mantapa Sub Centre",
    "Address": "Govt School Mantapa",
    "District": "Bangaluru Urban",
    "Pincode": 560105,
    "Beds_total": 250,
    "Beds_occupied": 109,
    "Beds_available": 141
  },
  {
    "Hospital": "MANGANAHALLI Sub Center",
    "Address": "ANGANAWADIGOVT SCHOOL SULIGERE POST",
    "District": "Bangaluru Urban",
    "Pincode": 560060,
    "Beds_total": 330,
    "Beds_occupied": 51,
    "Beds_available": 279
  },
  {
    "Hospital": "Avalahalli CHC",
    "Address": "Old Madras Road",
    "District": "Bangaluru Urban",
    "Pincode": 560049,
    "Beds_total": 495,
    "Beds_occupied": 278,
    "Beds_available": 217
  },
  {
    "Hospital": "Vanakanahalli SUB CENTER",
    "Address": "Next To Govt School",
    "District": "Bangaluru Urban",
    "Pincode": 560038,
    "Beds_total": 195,
    "Beds_occupied": 107,
    "Beds_available": 88
  },
  {
    "Hospital": "SHANTIPURA SUB CENTRE",
    "Address": "SHANTIPURA SC NEW AGE PUBLIC SCHOOL",
    "District": "Bangaluru Urban",
    "Pincode": 560099,
    "Beds_total": 450,
    "Beds_occupied": 356,
    "Beds_available": 94
  },
  {
    "Hospital": "Anekal TH",
    "Address": "Tali Road Opp Taluk Office",
    "District": "Bangaluru Urban",
    "Pincode": 562106,
    "Beds_total": 455,
    "Beds_occupied": 269,
    "Beds_available": 186
  },
  {
    "Hospital": "BALLURU SUB CENTRE",
    "Address": "BALLURU ANEKal Taluk",
    "District": "Bangaluru Urban",
    "Pincode": 562107,
    "Beds_total": 470,
    "Beds_occupied": 41,
    "Beds_available": 429
  },
  {
    "Hospital": "Doddagubbi Sub Centre",
    "Address": "Government Higher Primary School",
    "District": "Bangaluru Urban",
    "Pincode": 560077,
    "Beds_total": 345,
    "Beds_occupied": 231,
    "Beds_available": 114
  },
  {
    "Hospital": "KAKOLU SUB CENTRE",
    "Address": "GOVT. SCHOOL KAKOLU VILLAGE SONNENAHALLI",
    "District": "Bangaluru Urban",
    "Pincode": 560089,
    "Beds_total": 180,
    "Beds_occupied": 44,
    "Beds_available": 136
  },
  {
    "Hospital": "KOCHAR INSTITUTE MEG CENTRE",
    "Address": "KOCHAR INSTITUTE MEG CENTRE",
    "District": "Bangaluru Urban",
    "Pincode": 560041,
    "Beds_total": 290,
    "Beds_occupied": 5,
    "Beds_available": 285
  },
  {
    "Hospital": "Somanahalli Sub Centre Bolare",
    "Address": "KANAKPURA MAIN ROAD VILLAGE SOMANAHALLI",
    "District": "Bangaluru Urban",
    "Pincode": 560082,
    "Beds_total": 295,
    "Beds_occupied": 16,
    "Beds_available": 279
  },
  {
    "Hospital": "GH. K R Puram COVAXIN",
    "Address": "Hosakote Main Road",
    "District": "Bangaluru Urban",
    "Pincode": 560036,
    "Beds_total": 295,
    "Beds_occupied": 265,
    "Beds_available": 30
  },
  {
    "Hospital": "Bagaluru PHC",
    "Address": "Jala Hobli",
    "District": "Bangaluru Urban",
    "Pincode": 562149,
    "Beds_total": 215,
    "Beds_occupied": 203,
    "Beds_available": 12
  },
  {
    "Hospital": "DCHC Leprosy Hospital",
    "Address": "DCHC Leprosy Hospital",
    "District": "Bangaluru Urban",
    "Pincode": 560023,
    "Beds_total": 240,
    "Beds_occupied": 35,
    "Beds_available": 205
  },
  {
    "Hospital": "Mithra MultySpecialityHospital",
    "Address": "Neelagir Jigani Link Road Kyalasanahalli",
    "District": "Bangaluru Urban",
    "Pincode": 560105,
    "Beds_total": 165,
    "Beds_occupied": 91,
    "Beds_available": 74
  },
  {
    "Hospital": "Chikka Hosahalli SC Indlawadi",
    "Address": "Chikkahosahalli Village Indlawadi",
    "District": "Bangaluru Urban",
    "Pincode": 562106,
    "Beds_total": 265,
    "Beds_occupied": 180,
    "Beds_available": 85
  },
  {
    "Hospital": "Hennagara Sub Centre",
    "Address": "Hennagara Sub Centre Marsuru",
    "District": "Bangaluru Urban",
    "Pincode": 562107,
    "Beds_total": 465,
    "Beds_occupied": 61,
    "Beds_available": 404
  },
  {
    "Hospital": "Chikkabanavara PHC",
    "Address": "Dwarakanagar",
    "District": "Bangaluru Urban",
    "Pincode": 560090,
    "Beds_total": 85,
    "Beds_occupied": 83,
    "Beds_available": 2
  },
  {
    "Hospital": "Mathahalli Sub Centre",
    "Address": "Green Leaf Plant Technology Mathahalli",
    "District": "Bangaluru Urban",
    "Pincode": 562123,
    "Beds_total": 300,
    "Beds_occupied": 293,
    "Beds_available": 7
  },
  {
    "Hospital": "MADHANAYAKANAHALLI SC MAKLI",
    "Address": "MADHANAYAKANAHALLI TUMKURU ROAD",
    "District": "Bangaluru Urban",
    "Pincode": 562123,
    "Beds_total": 415,
    "Beds_occupied": 200,
    "Beds_available": 215
  },
  {
    "Hospital": "DCHC Leprosy COVAXIN",
    "Address": "DCHC Leprosy Hospital",
    "District": "Bangaluru Urban",
    "Pincode": 560023,
    "Beds_total": 370,
    "Beds_occupied": 12,
    "Beds_available": 358
  },
  {
    "Hospital": "BYAGADADENHALLI Sub Centre",
    "Address": "BYAGADADENHALLI Sub Centre",
    "District": "Bangaluru Urban",
    "Pincode": 562106,
    "Beds_total": 160,
    "Beds_occupied": 65,
    "Beds_available": 95
  },
  {
    "Hospital": "Sonnappanahalli Sub Centre",
    "Address": "Govt School Sonnappanahalli.",
    "District": "Bangaluru Urban",
    "Pincode": 562157,
    "Beds_total": 175,
    "Beds_occupied": 137,
    "Beds_available": 38
  },
  {
    "Hospital": "Machohalli Sub Centre",
    "Address": "Machohali",
    "District": "Bangaluru Urban",
    "Pincode": 560091,
    "Beds_total": 30,
    "Beds_occupied": 16,
    "Beds_available": 14
  },
  {
    "Hospital": "NH TOLL Singsandra",
    "Address": "Konappana Agrahara NH TOLL Singsandra",
    "District": "Bangaluru Urban",
    "Pincode": 560100,
    "Beds_total": 450,
    "Beds_occupied": 375,
    "Beds_available": 75
  },
  {
    "Hospital": "CHOLANAYAKANAHALLI SUB CENTRE",
    "Address": "GOVT SCHOOL",
    "District": "Bangaluru Urban",
    "Pincode": 562130,
    "Beds_total": 15,
    "Beds_occupied": 4,
    "Beds_available": 11
  },
  {
    "Hospital": "Yelahanka TH COVAXIN",
    "Address": "Yelahanka Old Town Behind Veeranjaneya Temple",
    "District": "Bangaluru Urban",
    "Pincode": 560064,
    "Beds_total": 230,
    "Beds_occupied": 210,
    "Beds_available": 20
  },
  {
    "Hospital": "KUTHAGANAHALLI Sub Centre",
    "Address": "KUTHAGANAHALLI Sub Centre",
    "District": "Bangaluru Urban",
    "Pincode": 562125,
    "Beds_total": 355,
    "Beds_occupied": 203,
    "Beds_available": 152
  },
  {
    "Hospital": "Dommasandra PHC",
    "Address": "Sarjapura Main Road",
    "District": "Bangaluru Urban",
    "Pincode": 562125,
    "Beds_total": 415,
    "Beds_occupied": 398,
    "Beds_available": 17
  },
  {
    "Hospital": "Kodigehalli Kannahali SC",
    "Address": "Kodigehalli Kannahalli",
    "District": "Bangaluru Urban",
    "Pincode": 560112,
    "Beds_total": 170,
    "Beds_occupied": 121,
    "Beds_available": 49
  },
  {
    "Hospital": "Hulimangala Sub Center",
    "Address": "G S P SCHOOLMARAGONANAHALLI VILLAGE",
    "District": "Bangaluru Urban",
    "Pincode": 562106,
    "Beds_total": 480,
    "Beds_occupied": 321,
    "Beds_available": 159
  },
  {
    "Hospital": "Chunchunakuppe S/C C.circle",
    "Address": "Chunchunakuppe Chandrappa Circle Bengaluru",
    "District": "Bangaluru Urban",
    "Pincode": 562130,
    "Beds_total": 280,
    "Beds_occupied": 126,
    "Beds_available": 154
  },
  {
    "Hospital": "Kumbalagodu Gollahalli PHC",
    "Address": "Gonipura Main Road",
    "District": "Bangaluru Urban",
    "Pincode": 560074,
    "Beds_total": 260,
    "Beds_occupied": 243,
    "Beds_available": 17
  },
  {
    "Hospital": "515 ABW MI ROOM",
    "Address": "515 ABW MI ROOM",
    "District": "Bangaluru Urban",
    "Pincode": 560008,
    "Beds_total": 30,
    "Beds_occupied": 9,
    "Beds_available": 21
  },
  {
    "Hospital": "Kannalli PHC",
    "Address": "Near Veerabhadraswamy Temple Kannalli",
    "District": "Bangaluru Urban",
    "Pincode": 560112,
    "Beds_total": 395,
    "Beds_occupied": 259,
    "Beds_available": 136
  }
]